{
  "norad_id": 48367,
  "name": "STARLINK-2643",
  "history": [
    {
      "epoch": "2026-03-28T20:56:15.627840Z",
      "apogee_km": 475.6772825064045,
      "perigee_km": 474.66450066618563,
      "latitude_deg": 5.896286702577897e-06,
      "longitude_deg": 115.9205727446801,
      "height_km": 475.72050993796785,
      "semi_major_axis_km": 6853.307891586295,
      "eccentricity": 7.389e-05,
      "inclination_deg": 53.1583,
      "raan_deg": 256.2723,
      "arg_perigee_deg": 46.3939,
      "mean_anomaly_deg": 313.7123,
      "mean_motion_rev_day": 15.30214796
    }
  ]
}